QIANFAN-33              
1 61566U 24185Q   25299.25651110  .00000654  00000+0  46352-3 0  9999
2 61566  88.9761  84.0960 0008742 110.0231 250.1888 13.96488794 62538
QIANFAN-34              
1 61567U 24185R   25299.20246230  .00000704  00000+0  45117-3 0  9992
2 61567  88.9742  83.7288 0007387 113.1252 247.0707 14.02242330 62692
QIANFAN-35              
1 61568U 24185S   25299.25502235  .00001207  00000+0  48229-3 0  9994
2 61568  88.9767  82.4471 0008706  85.1202 275.0986 14.27845233 63407
QIANFAN-36              
1 61569U 24185T   25299.27962804  .00000155  00000+0  20503-3 0  9995
2 61569  88.9746  85.9836 0006444 164.7229 195.4121 13.55567754 61490
QIANFAN-37              
1 62238U 24232B   25299.29502320  .00000214  00000+0  31242-3 0  9995
2 62238  89.0030  46.1081 0001489 127.5479 232.5808 13.50974673 92767
QIANFAN-38              
1 62239U 24232C   25299.24554859  .00000218  00000+0  31895-3 0  9993
2 62239  89.0036  46.0256 0013367 338.3020  21.7563 13.50983073 92815
QIANFAN-39              
1 62240U 24232D   25299.24722365  .00000889  00000+0  37149-3 0  9996
2 62240  89.0032  42.7294 0014745 228.2702 131.7231 14.25310231 94621
QIANFAN-40              
1 62241U 24232E   25299.27844131  .00000207  00000+0  30269-3 0  9996
2 62241  89.0065  45.5937 0012603 347.2838  12.7994 13.50982690 93181
